{
  "type": "FeatureCollection",
  "features": [
    {
      "type": "Feature",
      "properties": {
        "norad_id": 34614,
        "name": "COSMOS 2251 DEB",
        "group": "cosmos-2251-debris",
        "lat": 73.76595023836387,
        "lon": 82.93745883092944,
        "alt_km": 875.710130007491,
        "timestamp": "2025-12-11T07:02:24.125651+00:00",
        "meta_object_name": "COSMOS 2251 DEB",
        "meta_object_id": "1993-036WK",
        "meta_epoch": "2025-12-10T19:00:31.759200",
        "meta_mean_motion": 14.17409998,
        "meta_eccentricity": 0.01978528,
        "meta_inclination": 73.8731,
        "meta_ra_of_asc_node": 347.3883,
        "meta_arg_of_pericenter": 341.6189,
        "meta_mean_anomaly": 71.0573,
        "meta_ephemeris_type": 0,
        "meta_classification_type": "U",
        "meta_norad_cat_id": 34614,
        "meta_element_set_no": 999,
        "meta_rev_at_epoch": 84739,
        "meta_bstar": 0.0092988645,
        "meta_mean_motion_dot": 0.00022874,
        "meta_mean_motion_ddot": 0,
        "tle_line1": "1 34614U 93036WK  25344.79203425  .00022874  00000+0  92989-2 0  9990",
        "tle_line2": "2 34614  73.8731 347.3883 0197852 341.6189  71.0573 14.17409998847395"
      },
      "geometry": {
        "type": "Point",
        "coordinates": [
          82.93745883092944,
          73.76595023836387
        ]
      }
    },
    {
      "type": "Feature",
      "properties": {
        "norad_id": 34615,
        "name": "COSMOS 2251 DEB",
        "group": "cosmos-2251-debris",
        "lat": -32.127082567597924,
        "lon": -73.91493952525258,
        "alt_km": 1221.6558283516497,
        "timestamp": "2025-12-11T07:02:24.125681+00:00",
        "meta_object_name": "COSMOS 2251 DEB",
        "meta_object_id": "1993-036WL",
        "meta_epoch": "2025-12-10T20:42:57.430080",
        "meta_mean_motion": 13.52201417,
        "meta_eccentricity": 0.04013963,
        "meta_inclination": 74.005,
        "meta_ra_of_asc_node": 297.151,
        "meta_arg_of_pericenter": 204.7797,
        "meta_mean_anomaly": 184.5274,
        "meta_ephemeris_type": 0,
        "meta_classification_type": "U",
        "meta_norad_cat_id": 34615,
        "meta_element_set_no": 999,
        "meta_rev_at_epoch": 82790,
        "meta_bstar": 0.0001877765,
        "meta_mean_motion_dot": 1.83e-06,
        "meta_mean_motion_ddot": 0,
        "tle_line1": "1 34615U 93036WL  25344.86316470  .00000183  00000+0  18778-3 0  9998",
        "tle_line2": "2 34615  74.0050 297.1510 0401396 204.7797 184.5274 13.52201417827904"
      },
      "geometry": {
        "type": "Point",
        "coordinates": [
          -73.91493952525258,
          -32.127082567597924
        ]
      }
    },
    {
      "type": "Feature",
      "properties": {
        "norad_id": 34619,
        "name": "COSMOS 2251 DEB",
        "group": "cosmos-2251-debris",
        "lat": 6.424035386079509,
        "lon": -155.43495694885476,
        "alt_km": 655.3898665217312,
        "timestamp": "2025-12-11T07:02:24.125706+00:00",
        "meta_object_name": "COSMOS 2251 DEB",
        "meta_object_id": "1993-036WQ",
        "meta_epoch": "2025-12-10T21:10:26.590944",
        "meta_mean_motion": 14.6463832,
        "meta_eccentricity": 0.0094693,
        "meta_inclination": 74.0441,
        "meta_ra_of_asc_node": 203.5087,
        "meta_arg_of_pericenter": 298.7979,
        "meta_mean_anomaly": 60.3704,
        "meta_ephemeris_type": 0,
        "meta_classification_type": "U",
        "meta_norad_cat_id": 34619,
        "meta_element_set_no": 999,
        "meta_rev_at_epoch": 89271,
        "meta_bstar": 0.00032462982,
        "meta_mean_motion_dot": 1.808e-05,
        "meta_mean_motion_ddot": 0,
        "tle_line1": "1 34619U 93036WQ  25344.88225221  .00001808  00000+0  32463-3 0  9999",
        "tle_line2": "2 34619  74.0441 203.5087 0094693 298.7979  60.3704 14.64638320892716"
      },
      "geometry": {
        "type": "Point",
        "coordinates": [
          -155.43495694885476,
          6.424035386079509
        ]
      }
    },
    {
      "type": "Feature",
      "properties": {
        "norad_id": 34620,
        "name": "COSMOS 2251 DEB",
        "group": "cosmos-2251-debris",
        "lat": -33.154573888031365,
        "lon": -148.524433150161,
        "alt_km": 711.1232535271838,
        "timestamp": "2025-12-11T07:02:24.125718+00:00",
        "meta_object_name": "COSMOS 2251 DEB",
        "meta_object_id": "1993-036WR",
        "meta_epoch": "2025-12-10T22:54:53.055072",
        "meta_mean_motion": 14.49051837,
        "meta_eccentricity": 0.00809557,
        "meta_inclination": 74.0509,
        "meta_ra_of_asc_node": 222.8763,
        "meta_arg_of_pericenter": 259.7132,
        "meta_mean_anomaly": 99.4893,
        "meta_ephemeris_type": 0,
        "meta_classification_type": "U",
        "meta_norad_cat_id": 34620,
        "meta_element_set_no": 999,
        "meta_rev_at_epoch": 86801,
        "meta_bstar": 0.0032656149,
        "meta_mean_motion_dot": 0.0001292,
        "meta_mean_motion_ddot": 0,
        "tle_line1": "1 34620U 93036WR  25344.95478073  .00012920  00000+0  32656-2 0  9994",
        "tle_line2": "2 34620  74.0509 222.8763 0080955 259.7132  99.4893 14.49051837868015"
      },
      "geometry": {
        "type": "Point",
        "coordinates": [
          -148.524433150161,
          -33.154573888031365
        ]
      }
    },
    {
      "type": "Feature",
      "properties": {
        "norad_id": 34622,
        "name": "COSMOS 2251 DEB",
        "group": "cosmos-2251-debris",
        "lat": 69.01411790646898,
        "lon": 81.36996995811388,
        "alt_km": 786.7182513635171,
        "timestamp": "2025-12-11T07:02:24.125729+00:00",
        "meta_object_name": "COSMOS 2251 DEB",
        "meta_object_id": "1993-036WT",
        "meta_epoch": "2025-12-10T16:12:53.411616",
        "meta_mean_motion": 14.22032445,
        "meta_eccentricity": 0.01042912,
        "meta_inclination": 74.0429,
        "meta_ra_of_asc_node": 310.7152,
        "meta_arg_of_pericenter": 33.6772,
        "meta_mean_anomaly": 147.9327,
        "meta_ephemeris_type": 0,
        "meta_classification_type": "U",
        "meta_norad_cat_id": 34622,
        "meta_element_set_no": 999,
        "meta_rev_at_epoch": 86430,
        "meta_bstar": 0.0015933318,
        "meta_mean_motion_dot": 3.7e-05,
        "meta_mean_motion_ddot": 0,
        "tle_line1": "1 34622U 93036WT  25344.67561819  .00003700  00000+0  15933-2 0  9991",
        "tle_line2": "2 34622  74.0429 310.7152 0104291  33.6772 147.9327 14.22032445864300"
      },
      "geometry": {
        "type": "Point",
        "coordinates": [
          81.36996995811388,
          69.01411790646898
        ]
      }
    },
    {
      "type": "Feature",
      "properties": {
        "norad_id": 34626,
        "name": "COSMOS 2251 DEB",
        "group": "cosmos-2251-debris",
        "lat": 25.143518181093924,
        "lon": -25.578527088546092,
        "alt_km": 636.8166154253477,
        "timestamp": "2025-12-11T07:02:24.125740+00:00",
        "meta_object_name": "COSMOS 2251 DEB",
        "meta_object_id": "1993-036WX",
        "meta_epoch": "2025-12-10T17:02:28.084992",
        "meta_mean_motion": 14.72155163,
        "meta_eccentricity": 0.00264265,
        "meta_inclination": 74.0487,
        "meta_ra_of_asc_node": 327.8399,
        "meta_arg_of_pericenter": 56.69,
        "meta_mean_anomaly": 119.7752,
        "meta_ephemeris_type": 0,
        "meta_classification_type": "U",
        "meta_norad_cat_id": 34626,
        "meta_element_set_no": 999,
        "meta_rev_at_epoch": 89114,
        "meta_bstar": 0.0015910339,
        "meta_mean_motion_dot": 0.00010061,
        "meta_mean_motion_ddot": 0,
        "tle_line1": "1 34626U 93036WX  25344.71004728  .00010061  00000+0  15910-2 0  9994",
        "tle_line2": "2 34626  74.0487 327.8399 0026426  56.6900 119.7752 14.72155163891140"
      },
      "geometry": {
        "type": "Point",
        "coordinates": [
          -25.578527088546092,
          25.143518181093924
        ]
      }
    },
    {
      "type": "Feature",
      "properties": {
        "norad_id": 34634,
        "name": "COSMOS 2251 DEB",
        "group": "cosmos-2251-debris",
        "lat": -71.678967709074,
        "lon": -22.004130776178595,
        "alt_km": 735.7591842371949,
        "timestamp": "2025-12-11T07:02:24.125750+00:00",
        "meta_object_name": "COSMOS 2251 DEB",
        "meta_object_id": "1993-036XF",
        "meta_epoch": "2025-12-10T13:58:03.498816",
        "meta_mean_motion": 14.55648778,
        "meta_eccentricity": 0.0044287,
        "meta_inclination": 74.0527,
        "meta_ra_of_asc_node": 39.0577,
        "meta_arg_of_pericenter": 147.0759,
        "meta_mean_anomaly": 5.5093,
        "meta_ephemeris_type": 0,
        "meta_classification_type": "U",
        "meta_norad_cat_id": 34634,
        "meta_element_set_no": 999,
        "meta_rev_at_epoch": 88750,
        "meta_bstar": 0.00052246,
        "meta_mean_motion_dot": 2.283e-05,
        "meta_mean_motion_ddot": 0,
        "tle_line1": "1 34634U 93036XF  25344.58198494  .00002283  00000+0  52246-3 0  9993",
        "tle_line2": "2 34634  74.0527  39.0577 0044287 147.0759   5.5093 14.55648778887501"
      },
      "geometry": {
        "type": "Point",
        "coordinates": [
          -22.004130776178595,
          -71.678967709074
        ]
      }
    }
  ]
}